ENTRYSAT                
1 44429U 98067QP  19273.18527442  .00012501  00000-0  20485-3 0  9999
2 44429  51.6413 199.5252 0004061  79.9947 280.1501 15.52862893 13857
VCC C                   
1 44430U 98067QQ  19273.05778601  .00012352  00000-0  20212-3 0  9994
2 44430  51.6414 200.1744 0004287  87.9762 272.1719 15.52913335 12656
VCC B                   
1 44431U 98067QR  19272.99810050  .00010824  00000-0  17956-3 0  9995
2 44431  51.6417 200.5247 0004400  85.2052 274.9440 15.52680501 13762
